     2.100          NAVIGATION                              RINEX VERSION / TYPE
fic2rin                                 05/08/2017 00:04:06 PGM / RUN BY / DATE
                                                            END OF HEADER
 6 17  5  7 20  0  0.0  .347864814103D-03  .500222085975D-11  .000000000000D+00
     .500000000000D+02  .115937500000D+02  .469126683867D-08 -.242926987273D+00
     .637024641037D-06  .806828262284D-03  .451132655144D-05  .515366116714D+04
     .720000000000D+05 -.111758708954D-07 -.214802521202D+01  .745058059692D-08
     .966778122898D+00  .297312500000D+03 -.113684772291D+01 -.824748639806D-08
     .789318592573D-10  .100000000000D+01  .194800000000D+04  .000000000000D+00
     .240000000000D+01  .000000000000D+00  .465661287308D-08  .500000000000D+02
     .648060000000D+05  .400000000000D+01
 7 17  5  7 20  0  0.0  .354067422450D-03 -.420641299570D-11  .000000000000D+00
     .400000000000D+02  .359687500000D+02  .487341728311D-08 -.982437597395D+00
     .198930501938D-05  .104285519337D-01  .256113708019D-05  .515373849297D+04
     .720000000000D+05  .234693288803D-06  .101763304816D+01  .577419996262D-07
     .962452966098D+00  .326843750000D+03 -.260492365049D+01 -.845142346428D-08
     .248938940735D-09  .100000000000D+01  .194800000000D+04  .000000000000D+00
     .240000000000D+01  .000000000000D+00 -.111758708954D-07  .400000000000D+02
     .648060000000D+05  .400000000000D+01
 8 17  5  7 20  0  0.0 -.589261762798D-04 -.136424205266D-11  .000000000000D+00
     .790000000000D+02  .144687500000D+02  .430517932800D-08  .232234565991D+01
     .104680657387D-05  .259092159104D-02  .112373381853D-04  .515363266182D+04
     .720000000000D+05  .145286321640D-06  .308103770079D+01  .428408384323D-07
     .966921894098D+00  .163656250000D+03 -.700665491816D+00 -.788461414011D-08
     .245367363393D-09  .100000000000D+01  .194800000000D+04  .000000000000D+00
     .240000000000D+01  .000000000000D+00  .512227416039D-08  .790000000000D+02
     .648060000000D+05  .400000000000D+01
 9 17  5  7 20  0  0.0  .358487013727D-03  .795807864051D-11  .000000000000D+00
     .800000000000D+01  .618750000000D+02  .436803908922D-08  .182459041230D+01
     .327825546265D-05  .779836322181D-03  .107064843178D-04  .515364396858D+04
     .720000000000D+05  .651925802231D-07 -.607319146880D-01 -.111758708954D-07
     .954075349205D+00  .169437500000D+03  .190532618396D+01 -.793533053837D-08
     .287511976028D-09  .100000000000D+01  .194800000000D+04  .000000000000D+00
     .240000000000D+01  .000000000000D+00  .139698386192D-08  .800000000000D+01
     .648060000000D+05  .400000000000D+01
10 17  5  7 20  0  0.0 -.594244338572D-04  .920863385545D-11  .000000000000D+00
     .970000000000D+02 -.529062500000D+02  .439232581514D-08 -.256460503574D+01
    -.277161598206D-05  .248023704626D-02  .937841832638D-05  .515367497826D+04
     .720000000000D+05  .167638063431D-07 -.110063388221D+01  .242143869400D-07
     .959759308205D+00  .198812500000D+03 -.277374860126D+01 -.795354558281D-08
    -.439304013061D-09  .100000000000D+01  .194800000000D+04  .000000000000D+00
     .240000000000D+01  .000000000000D+00  .186264514923D-08  .970000000000D+02
     .648060000000D+05  .400000000000D+01
11 17  5  7 20  0  0.0 -.686500687152D-03 -.261479726760D-11  .000000000000D+00
     .160000000000D+02  .518125000000D+02  .631490589832D-08 -.975373536109D+00
     .287592411041D-05  .167048007715D-01  .608712434769D-05  .515370340919D+04
     .720000000000D+05 -.324100255966D-06 -.254071920862D+01  .113621354103D-06
     .900661796316D+00  .230593750000D+03  .163889530675D+01 -.924788521154D-08
     .343228582562D-09  .100000000000D+01  .194800000000D+04  .000000000000D+00
     .240000000000D+01  .000000000000D+00 -.121071934700D-07  .160000000000D+02
     .648060000000D+05  .400000000000D+01
12 17  5  7 20  0  0.0  .384058803320D-03 -.795807864051D-12  .000000000000D+00
     .520000000000D+02 -.699062500000D+02  .405374028313D-08 -.156662234941D+01
    -.360608100891D-05  .670280843042D-02  .802986323833D-05  .515353690529D+04
     .720000000000D+05  .117346644402D-06  .210201294791D+01  .279396772385D-07
     .989195708383D+00  .239750000000D+03  .853015653126D+00 -.776353766822D-08
    -.248938940735D-09  .100000000000D+01  .194800000000D+04  .000000000000D+00
     .240000000000D+01  .000000000000D+00 -.125728547573D-07  .520000000000D+02
     .648060000000D+05  .400000000000D+01
13 17  5  7 20  0  0.0 -.809133052826D-04 -.147792889038D-11  .000000000000D+00
     .480000000000D+02  .792812500000D+02  .413981529707D-08  .626099255319D-01
     .397115945816D-05  .380230147857D-02  .959448516369D-05  .515369274521D+04
     .720000000000D+05 -.577419996262D-07  .651193493737D-01 -.447034835815D-07
     .970158705679D+00  .198531250000D+03  .183938425330D+01 -.793175896103D-08
     .311084386485D-09  .100000000000D+01  .194800000000D+04  .000000000000D+00
     .240000000000D+01  .000000000000D+00 -.111758708954D-07  .480000000000D+02
     .648060000000D+05  .400000000000D+01
14 17  5  7 20  0  0.0 -.698342919350D-04 -.147792889038D-11  .000000000000D+00
     .310000000000D+02  .814375000000D+02  .427196365872D-08  .143624975124D+01
     .427290797234D-05  .902423344087D-02  .106282532215D-04  .515365446854D+04
     .720000000000D+05 -.178813934326D-06  .258204324161D-01 -.651925802231D-07
     .962676505832D+00  .172812500000D+03 -.196043804576D+01 -.803783480808D-08
     .347157317639D-09  .100000000000D+01  .194800000000D+04  .000000000000D+00
     .240000000000D+01  .000000000000D+00 -.931322574615D-08  .310000000000D+02
     .648060000000D+05  .400000000000D+01
15 17  5  7 20  0  0.0 -.349433161318D-03 -.795807864051D-12  .000000000000D+00
     .450000000000D+02  .644375000000D+02  .495449208877D-08  .887725202964D+00
     .342726707458D-05  .913094240241D-02  .105965882540D-04  .515379634476D+04
     .720000000000D+05 -.143423676491D-06 -.121797336662D+00  .134110450745D-06
     .929683204671D+00  .159468750000D+03  .580374483864D+00 -.828498796015D-08
     .932181686252D-10  .100000000000D+01  .194800000000D+04  .000000000000D+00
     .240000000000D+01  .000000000000D+00 -.107102096081D-07  .450000000000D+02
     .648060000000D+05  .400000000000D+01
16 17  5  7 20  0  0.0  .328449532390D-04  .682121026330D-12  .000000000000D+00
     .280000000000D+02 -.924375000000D+02  .393016370709D-08  .270420756736D+01
    -.479072332382D-05  .937150395475D-02  .900961458683D-05  .515369480515D+04
     .720000000000D+05 -.113621354103D-06  .212087194713D+01 -.115483999252D-06
     .989684663882D+00  .222062500000D+03  .444558990718D+00 -.765174729742D-08
    -.375729936374D-09  .100000000000D+01  .194800000000D+04  .000000000000D+00
     .240000000000D+01  .000000000000D+00 -.107102096081D-07  .280000000000D+02
     .648060000000D+05  .400000000000D+01
17 17  5  7 20  0  0.0 -.180664472282D-03  .170530256582D-11  .000000000000D+00
     .190000000000D+02  .130000000000D+02  .392623497202D-08  .173947156107D+01
     .443309545517D-06  .116196746239D-01  .105667859316D-04  .515362801743D+04
     .720000000000D+05 -.122934579849D-06  .313829538546D+01 -.314787030220D-06
     .980150247443D+00  .187281250000D+03 -.184917017023D+01 -.766389066038D-08
     .261439461432D-09  .100000000000D+01  .194800000000D+04  .000000000000D+00
     .240000000000D+01  .000000000000D+00 -.111758708954D-07  .190000000000D+02
     .648060000000D+05  .400000000000D+01
18 17  5  7 20  0  0.0  .614350661635D-03  .193267624127D-11  .000000000000D+00
     .520000000000D+02 -.641875000000D+02  .507271129879D-08 -.307725789644D+01
    -.331364572048D-05  .180442346027D-01  .861287117004D-05  .515376113892D+04
     .720000000000D+05  .234693288803D-06 -.114203730191D+01 -.856816768646D-07
     .925312056653D+00  .190375000000D+03 -.180705944134D+01 -.805997858760D-08
    -.456447584303D-09  .100000000000D+01  .194800000000D+04  .000000000000D+00
     .240000000000D+01  .000000000000D+00 -.111758708954D-07  .520000000000D+02
     .648060000000D+05  .400000000000D+01
19 17  5  7 20  0  0.0 -.504500698298D-03  .136424205266D-11  .000000000000D+00
     .640000000000D+02  .247812500000D+02  .403838250056D-08 -.143976727339D+01
     .138394534588D-05  .102605019929D-01  .989064574242D-05  .515366801834D+04
     .720000000000D+05  .182539224625D-06 -.309702549506D+01  .670552253723D-07
     .977399287049D+00  .196562500000D+03  .962598473782D+00 -.770067790700D-08
     .316441752498D-09  .100000000000D+01  .194800000000D+04  .000000000000D+00
     .240000000000D+01  .000000000000D+00 -.153668224812D-07  .640000000000D+02
     .648060000000D+05  .400000000000D+01
20 17  5  7 20  0  0.0  .471316743642D-03  .147792889038D-11  .000000000000D+00
     .360000000000D+02 -.543750000000D+02  .535450875107D-08  .863088575561D+00
    -.292435288429D-05  .434378010686D-02  .800564885139D-05  .515366876411D+04
     .720000000000D+05 -.372529029846D-08 -.119342591139D+01 -.651925802231D-07
     .926628071424D+00  .211937500000D+03  .158814079180D+01 -.851678332964D-08
    -.506449667090D-09  .100000000000D+01  .194800000000D+04  .000000000000D+00
     .240000000000D+01  .000000000000D+00 -.838190317154D-08  .360000000000D+02
     .648060000000D+05  .400000000000D+01
21 17  5  7 20  0  0.0 -.508302357048D-03  .216004991671D-11  .000000000000D+00
     .200000000000D+02  .186875000000D+02  .516557230968D-08 -.216165582834D+01
     .109896063805D-05  .240023456281D-01  .365450978279D-05  .515368367577D+04
     .720000000000D+05  .344589352608D-06 -.218309039139D+01  .819563865662D-07
     .939309179300D+00  .291875000000D+03 -.167536728813D+01 -.817641200895D-08
     .184293390845D-09  .100000000000D+01  .194800000000D+04  .000000000000D+00
     .240000000000D+01  .000000000000D+00 -.977888703346D-08  .200000000000D+02
     .648060000000D+05  .400000000000D+01
